[{"OBJECT_NAME":"LUMELITE-4","OBJECT_ID":"2023-057B","EPOCH":"2026-03-09T12:04:50.773152","MEAN_MOTION":15.19877406,"ECCENTRICITY":0.00040087,"INCLINATION":9.9925,"RA_OF_ASC_NODE":94.5306,"ARG_OF_PERICENTER":70.4016,"MEAN_ANOMALY":289.6633,"EPHEMERIS_TYPE":0,"CLASSIFICATION_TYPE":"U","NORAD_CAT_ID":56309,"ELEMENT_SET_NO":999,"REV_AT_EPOCH":15885,"BSTAR":0.00062211184,"MEAN_MOTION_DOT":0.00014689,"MEAN_MOTION_DDOT":0},{"OBJECT_NAME":"ORBASTRO-TR5","OBJECT_ID":"2025-052AC","EPOCH":"2026-03-09T16:13:44.206176","MEAN_MOTION":15.21342195,"ECCENTRICITY":0.00056631,"INCLINATION":97.3978,"RA_OF_ASC_NODE":322.1193,"ARG_OF_PERICENTER":133.5462,"MEAN_ANOMALY":226.6245,"EPHEMERIS_TYPE":0,"CLASSIFICATION_TYPE":"U","NORAD_CAT_ID":63236,"ELEMENT_SET_NO":999,"REV_AT_EPOCH":5468,"BSTAR":0.00031434334,"MEAN_MOTION_DOT":6.976e-5,"MEAN_MOTION_DDOT":0}]
